[{"OBJECT_NAME":"MEXSAT 3","OBJECT_ID":"2012-075B","EPOCH":"2026-04-05T15:37:18.019200","MEAN_MOTION":1.00269984,"ECCENTRICITY":0.0001281,"INCLINATION":0.0198,"RA_OF_ASC_NODE":131.9369,"ARG_OF_PERICENTER":255.6531,"MEAN_ANOMALY":285.8776,"EPHEMERIS_TYPE":0,"CLASSIFICATION_TYPE":"U","NORAD_CAT_ID":39035,"ELEMENT_SET_NO":999,"REV_AT_EPOCH":632,"BSTAR":0,"MEAN_MOTION_DOT":-2.4e-7,"MEAN_MOTION_DDOT":0},{"OBJECT_NAME":"TDRS 11","OBJECT_ID":"2013-004A","EPOCH":"2026-04-05T17:03:03.939264","MEAN_MOTION":1.00273797,"ECCENTRICITY":0.0004487,"INCLINATION":3.4151,"RA_OF_ASC_NODE":29.966,"ARG_OF_PERICENTER":357.4571,"MEAN_ANOMALY":247.9291,"EPHEMERIS_TYPE":0,"CLASSIFICATION_TYPE":"U","NORAD_CAT_ID":39070,"ELEMENT_SET_NO":999,"REV_AT_EPOCH":4596,"BSTAR":0,"MEAN_MOTION_DOT":8.2e-7,"MEAN_MOTION_DDOT":0},{"OBJECT_NAME":"AMAZONAS 3","OBJECT_ID":"2013-006A","EPOCH":"2026-04-05T19:18:05.952384","MEAN_MOTION":1.00273178,"ECCENTRICITY":0.0001834,"INCLINATION":0.023,"RA_OF_ASC_NODE":218.587,"ARG_OF_PERICENTER":146.7511,"MEAN_ANOMALY":57.2951,"EPHEMERIS_TYPE":0,"CLASSIFICATION_TYPE":"U","NORAD_CAT_ID":39078,"ELEMENT_SET_NO":999,"REV_AT_EPOCH":4418,"BSTAR":0,"MEAN_MOTION_DOT":-2.81e-6,"MEAN_MOTION_DDOT":0},{"OBJECT_NAME":"AZERSPACE 1","OBJECT_ID":"2013-006B","EPOCH":"2026-04-05T19:48:33.030720","MEAN_MOTION":1.0026995,"ECCENTRICITY":0.0001592,"INCLINATION":0.0124,"RA_OF_ASC_NODE":175.3806,"ARG_OF_PERICENTER":240.8298,"MEAN_ANOMALY":121.0482,"EPHEMERIS_TYPE":0,"CLASSIFICATION_TYPE":"U","NORAD_CAT_ID":39079,"ELEMENT_SET_NO":999,"REV_AT_EPOCH":4808,"BSTAR":0,"MEAN_MOTION_DOT":1.35e-6,"MEAN_MOTION_DDOT":0},{"OBJECT_NAME":"SBIRS GEO-2 (USA 241)","OBJECT_ID":"2013-011A","EPOCH":"2026-04-05T19:21:13.152672","MEAN_MOTION":1.00271633,"ECCENTRICITY":0.0002243,"INCLINATION":4.3333,"RA_OF_ASC_NODE":52.4195,"ARG_OF_PERICENTER":318.5039,"MEAN_ANOMALY":63.6817,"EPHEMERIS_TYPE":0,"CLASSIFICATION_TYPE":"U","NORAD_CAT_ID":39120,"ELEMENT_SET_NO":999,"REV_AT_EPOCH":4781,"BSTAR":0,"MEAN_MOTION_DOT":-2.83e-6,"MEAN_MOTION_DDOT":0},{"OBJECT_NAME":"EUTELSAT 117 WEST A","OBJECT_ID":"2013-012A","EPOCH":"2026-04-05T15:36:48.065184","MEAN_MOTION":1.00272295,"ECCENTRICITY":0.0002992,"INCLINATION":0.0516,"RA_OF_ASC_NODE":58.7015,"ARG_OF_PERICENTER":313.9342,"MEAN_ANOMALY":298.708,"EPHEMERIS_TYPE":0,"CLASSIFICATION_TYPE":"U","NORAD_CAT_ID":39122,"ELEMENT_SET_NO":999,"REV_AT_EPOCH":4770,"BSTAR":0,"MEAN_MOTION_DOT":-1.1e-7,"MEAN_MOTION_DDOT":0},{"OBJECT_NAME":"ANIK G1","OBJECT_ID":"2013-014A","EPOCH":"2026-04-05T15:39:25.314048","MEAN_MOTION":1.00272304,"ECCENTRICITY":0.0002452,"INCLINATION":0.0449,"RA_OF_ASC_NODE":81.9096,"ARG_OF_PERICENTER":279.5347,"MEAN_ANOMALY":320.0558,"EPHEMERIS_TYPE":0,"CLASSIFICATION_TYPE":"U","NORAD_CAT_ID":39127,"ELEMENT_SET_NO":999,"REV_AT_EPOCH":4752,"BSTAR":0,"MEAN_MOTION_DOT":-7.2e-7,"MEAN_MOTION_DDOT":0},{"OBJECT_NAME":"ZHONGXING-11","OBJECT_ID":"2013-020A","EPOCH":"2026-04-05T22:04:59.931840","MEAN_MOTION":1.0027048,"ECCENTRICITY":0.0001507,"INCLINATION":0.0103,"RA_OF_ASC_NODE":250.0052,"ARG_OF_PERICENTER":160.8729,"MEAN_ANOMALY":212.504,"EPHEMERIS_TYPE":0,"CLASSIFICATION_TYPE":"U","NORAD_CAT_ID":39157,"ELEMENT_SET_NO":999,"REV_AT_EPOCH":4717,"BSTAR":0,"MEAN_MOTION_DOT":0,"MEAN_MOTION_DDOT":0},{"OBJECT_NAME":"EUTELSAT 7B","OBJECT_ID":"2013-022A","EPOCH":"2026-04-05T19:37:26.594688","MEAN_MOTION":1.00274028,"ECCENTRICITY":0.0006282,"INCLINATION":0.0732,"RA_OF_ASC_NODE":21.3636,"ARG_OF_PERICENTER":350.0017,"MEAN_ANOMALY":124.1062,"EPHEMERIS_TYPE":0,"CLASSIFICATION_TYPE":"U","NORAD_CAT_ID":39163,"ELEMENT_SET_NO":999,"REV_AT_EPOCH":4722,"BSTAR":0,"MEAN_MOTION_DOT":5.0e-7,"MEAN_MOTION_DDOT":0},{"OBJECT_NAME":"WGS F5 (USA 243)","OBJECT_ID":"2013-024A","EPOCH":"2026-04-05T19:20:28.222944","MEAN_MOTION":1.00271665,"ECCENTRICITY":2.6e-5,"INCLINATION":0.0032,"RA_OF_ASC_NODE":201.9349,"ARG_OF_PERICENTER":204.2687,"MEAN_ANOMALY":25.5258,"EPHEMERIS_TYPE":0,"CLASSIFICATION_TYPE":"U","NORAD_CAT_ID":39168,"ELEMENT_SET_NO":999,"REV_AT_EPOCH":4644,"BSTAR":0,"MEAN_MOTION_DOT":-2.83e-6,"MEAN_MOTION_DDOT":0},{"OBJECT_NAME":"SES-6","OBJECT_ID":"2013-026A","EPOCH":"2026-04-05T19:23:57.888960","MEAN_MOTION":1.00272797,"ECCENTRICITY":0.0002724,"INCLINATION":0.0367,"RA_OF_ASC_NODE":293.0106,"ARG_OF_PERICENTER":85.8937,"MEAN_ANOMALY":65.6973,"EPHEMERIS_TYPE":0,"CLASSIFICATION_TYPE":"U","NORAD_CAT_ID":39172,"ELEMENT_SET_NO":999,"REV_AT_EPOCH":4699,"BSTAR":0,"MEAN_MOTION_DOT":-2.59e-6,"MEAN_MOTION_DDOT":0},{"OBJECT_NAME":"IRNSS-1A","OBJECT_ID":"2013-034A","EPOCH":"2026-04-02T23:54:38.734560","MEAN_MOTION":1.00278968,"ECCENTRICITY":0.00167253,"INCLINATION":35.5564,"RA_OF_ASC_NODE":64.9409,"ARG_OF_PERICENTER":190.8703,"MEAN_ANOMALY":349.2228,"EPHEMERIS_TYPE":0,"CLASSIFICATION_TYPE":"U","NORAD_CAT_ID":39199,"ELEMENT_SET_NO":999,"REV_AT_EPOCH":4661,"BSTAR":0,"MEAN_MOTION_DOT":8.1e-7,"MEAN_MOTION_DDOT":0},{"OBJECT_NAME":"ALPHASAT","OBJECT_ID":"2013-038A","EPOCH":"2026-04-05T16:17:14.189280","MEAN_MOTION":1.0027428,"ECCENTRICITY":0.0002323,"INCLINATION":2.988,"RA_OF_ASC_NODE":1.9607,"ARG_OF_PERICENTER":42.181,"MEAN_ANOMALY":59.0261,"EPHEMERIS_TYPE":0,"CLASSIFICATION_TYPE":"U","NORAD_CAT_ID":39215,"ELEMENT_SET_NO":999,"REV_AT_EPOCH":4329,"BSTAR":0,"MEAN_MOTION_DOT":1.36e-6,"MEAN_MOTION_DDOT":0},{"OBJECT_NAME":"INSAT-3D","OBJECT_ID":"2013-038B","EPOCH":"2026-04-05T20:12:24.811776","MEAN_MOTION":1.00271447,"ECCENTRICITY":0.0001734,"INCLINATION":1.7391,"RA_OF_ASC_NODE":83.4424,"ARG_OF_PERICENTER":268.1102,"MEAN_ANOMALY":275.1739,"EPHEMERIS_TYPE":0,"CLASSIFICATION_TYPE":"U","NORAD_CAT_ID":39216,"ELEMENT_SET_NO":999,"REV_AT_EPOCH":4635,"BSTAR":0,"MEAN_MOTION_DOT":-3.37e-6,"MEAN_MOTION_DDOT":0},{"OBJECT_NAME":"WGS F6 (USA 244)","OBJECT_ID":"2013-041A","EPOCH":"2026-04-05T17:14:10.373568","MEAN_MOTION":1.0027071,"ECCENTRICITY":2.63e-5,"INCLINATION":0.0129,"RA_OF_ASC_NODE":198.461,"ARG_OF_PERICENTER":230.8202,"MEAN_ANOMALY":248.0813,"EPHEMERIS_TYPE":0,"CLASSIFICATION_TYPE":"U","NORAD_CAT_ID":39222,"ELEMENT_SET_NO":999,"REV_AT_EPOCH":4533,"BSTAR":0,"MEAN_MOTION_DOT":0,"MEAN_MOTION_DDOT":0},{"OBJECT_NAME":"ES'HAIL 1","OBJECT_ID":"2013-044A","EPOCH":"2026-04-05T19:42:41.093280","MEAN_MOTION":1.00271907,"ECCENTRICITY":0.0002778,"INCLINATION":0.0568,"RA_OF_ASC_NODE":1.3012,"ARG_OF_PERICENTER":18.4253,"MEAN_ANOMALY":135.5663,"EPHEMERIS_TYPE":0,"CLASSIFICATION_TYPE":"U","NORAD_CAT_ID":39233,"ELEMENT_SET_NO":999,"REV_AT_EPOCH":4590,"BSTAR":0,"MEAN_MOTION_DOT":1.45e-6,"MEAN_MOTION_DDOT":0},{"OBJECT_NAME":"GSAT-7","OBJECT_ID":"2013-044B","EPOCH":"2026-04-05T19:56:33.830304","MEAN_MOTION":1.00272735,"ECCENTRICITY":0.0005168,"INCLINATION":0.1067,"RA_OF_ASC_NODE":86.1773,"ARG_OF_PERICENTER":214.829,"MEAN_ANOMALY":266.2529,"EPHEMERIS_TYPE":0,"CLASSIFICATION_TYPE":"U","NORAD_CAT_ID":39234,"ELEMENT_SET_NO":999,"REV_AT_EPOCH":4453,"BSTAR":0,"MEAN_MOTION_DOT":-7.5e-7,"MEAN_MOTION_DDOT":0}]
