MEXSAT 3                
1 39035U 12075B   26095.65090300 -.00000024  00000+0  00000+0 0  9995
2 39035   0.0198 131.9369 0001281 255.6531 285.8776  1.00269984  6324
TDRS 11                 
1 39070U 13004A   26095.71046226  .00000082  00000+0  00000+0 0  9995
2 39070   3.4151  29.9660 0004487 357.4571 247.9291  1.00273797 45966
AMAZONAS 3              
1 39078U 13006A   26095.80423556 -.00000281  00000+0  00000+0 0  9992
2 39078   0.0230 218.5870 0001834 146.7511  57.2951  1.00273178 44181
AZERSPACE 1             
1 39079U 13006B   26095.82538230  .00000135  00000+0  00000+0 0  9998
2 39079   0.0124 175.3806 0001592 240.8298 121.0482  1.00269950 48087
SBIRS GEO-2 (USA 241)   
1 39120U 13011A   26095.80640223 -.00000283  00000+0  00000+0 0  9990
2 39120   4.3333  52.4195 0002243 318.5039  63.6817  1.00271633 47813
EUTELSAT 117 WEST A     
1 39122U 13012A   26095.65055631 -.00000011  00000+0  00000+0 0  9998
2 39122   0.0516  58.7015 0002992 313.9342 298.7080  1.00272295 47704
ANIK G1                 
1 39127U 13014A   26095.65237632 -.00000072  00000+0  00000+0 0  9995
2 39127   0.0449  81.9096 0002452 279.5347 320.0558  1.00272304 47524
ZHONGXING-11            
1 39157U 13020A   26095.92013810  .00000000  00000+0  00000+0 0  9995
2 39157   0.0103 250.0052 0001507 160.8729 212.5040  1.00270480 47176
EUTELSAT 7B             
1 39163U 13022A   26095.81766892  .00000050  00000+0  00000+0 0  9992
2 39163   0.0732  21.3636 0006282 350.0017 124.1062  1.00274028 47226
WGS F5 (USA 243)        
1 39168U 13024A   26095.80588221 -.00000283  00000+0  00000+0 0  9995
2 39168   0.0032 201.9349 0000260 204.2687  25.5258  1.00271665 46442
SES-6                   
1 39172U 13026A   26095.80830890 -.00000259  00000+0  00000+0 0  9997
2 39172   0.0367 293.0106 0002724  85.8937  65.6973  1.00272797 46995
IRNSS-1A                
1 39199U 13034A   26092.99628165  .00000081  00000+0  00000+0 0  9994
2 39199  35.5564  64.9409 0016725 190.8703 349.2228  1.00278968 46610
ALPHASAT                
1 39215U 13038A   26095.67863645  .00000136  00000+0  00000+0 0  9990
2 39215   2.9880   1.9607 0002323  42.1810  59.0261  1.00274280 43293
INSAT-3D                
1 39216U 13038B   26095.84195384 -.00000337  00000+0  00000+0 0  9992
2 39216   1.7391  83.4424 0001734 268.1102 275.1739  1.00271447 46352
WGS F6 (USA 244)        
1 39222U 13041A   26095.71817562  .00000000  00000+0  00000+0 0  9994
2 39222   0.0129 198.4610 0000263 230.8202 248.0813  1.00270710 45338
ES'HAIL 1               
1 39233U 13044A   26095.82130895  .00000145  00000+0  00000+0 0  9998
2 39233   0.0568   1.3012 0002778  18.4253 135.5663  1.00271907 45909
GSAT-7                  
1 39234U 13044B   26095.83094711 -.00000075  00000+0  00000+0 0  9999
2 39234   0.1067  86.1773 0005168 214.8290 266.2529  1.00272735 44530
